[Satellite]
VERSION=1.1
NAME=SL-14 R/B
NICKNAME=SL-14 R/B
TLE1=1 16496U 86006B   20157.83315108  .00000064  00000-0  46911-5 0  9996
TLE2=2 16496  82.5267  72.9990 0020826  89.5154 328.9988 14.84141311837120
STATUS=0
